[{"OBJECT_NAME":"ORBASTRO-PC-1","OBJECT_ID":"2023-174C","EPOCH":"2026-03-09T22:26:50.165376","MEAN_MOTION":15.43995448,"ECCENTRICITY":0.00075959,"INCLINATION":97.381,"RA_OF_ASC_NODE":153.1706,"ARG_OF_PERICENTER":162.4702,"MEAN_ANOMALY":197.681,"EPHEMERIS_TYPE":0,"CLASSIFICATION_TYPE":"U","NORAD_CAT_ID":58258,"ELEMENT_SET_NO":999,"REV_AT_EPOCH":13013,"BSTAR":0.00060269978,"MEAN_MOTION_DOT":0.00027464,"MEAN_MOTION_DDOT":0},{"OBJECT_NAME":"BANDWAGON-2 OBJECT L","OBJECT_ID":"2024-247L","EPOCH":"2026-03-09T09:57:55.230048","MEAN_MOTION":15.44744131,"ECCENTRICITY":0.00080326,"INCLINATION":44.9907,"RA_OF_ASC_NODE":91.4295,"ARG_OF_PERICENTER":17.6861,"MEAN_ANOMALY":342.4307,"EPHEMERIS_TYPE":0,"CLASSIFICATION_TYPE":"U","NORAD_CAT_ID":62387,"ELEMENT_SET_NO":999,"REV_AT_EPOCH":6801,"BSTAR":0.00091961609,"MEAN_MOTION_DOT":0.00043886,"MEAN_MOTION_DDOT":0}]
